{
  "type": "FeatureCollection",
  "name": "project-locations",
  "crs": {
    "type": "name",
    "properties": {
      "name": "urn:ogc:def:crs:OGC:1.3:CRS84"
    }
  },
  "features": [
    {
      "type": "Feature",
      "properties": {
        "id": "lisbon",
        "type": "base",
        "precision": "city",
        "name_en": "Lisbon, Portugal",
        "name_fr": "Lisbonne, Portugal",
        "org": "Base · Universidade Lusófona",
        "note_en": "Current base. Master's in Data Science.",
        "note_fr": "Base actuelle. Master en Data Science.",
        "projects": []
      },
      "geometry": {
        "type": "Point",
        "coordinates": [
          -9.1393,
          38.7223
        ]
      }
    },
    {
      "type": "Feature",
      "properties": {
        "id": "bc",
        "type": "freelance",
        "precision": "region",
        "name_en": "British Columbia, Canada",
        "name_fr": "Colombie-Britannique, Canada",
        "org": "Freelance GIS consulting (remote)",
        "note_en": "Mining and mineral tenure datasets, Crown tenure, LTSA title research data.",
        "note_fr": "Données minières et titres miniers, tenures de la Couronne, recherches de titres LTSA.",
        "projects": [
          "mining-tenure",
          "arcpy-automation",
          "cartography"
        ]
      },
      "geometry": {
        "type": "Point",
        "coordinates": [
          -124.5,
          53.7
        ]
      }
    },
    {
      "type": "Feature",
      "properties": {
        "id": "us-plss",
        "type": "freelance",
        "precision": "region",
        "name_en": "United States — PLSS / BLM data",
        "name_fr": "États-Unis — données PLSS / BLM",
        "org": "Freelance GIS consulting (remote)",
        "note_en": "PLSS / BLM tenure datasets processed for tenure and constraints mapping.",
        "note_fr": "Données foncières PLSS / BLM traitées pour la cartographie des tenures et des contraintes.",
        "projects": [
          "mining-tenure"
        ]
      },
      "geometry": {
        "type": "Point",
        "coordinates": [
          -112.0,
          40.5
        ]
      }
    },
    {
      "type": "Feature",
      "properties": {
        "id": "tunis-wolo",
        "type": "work",
        "precision": "city",
        "name_en": "Tunis, Tunisia",
        "name_fr": "Tunis, Tunisie",
        "org": "WOLO Engineering · 2023–2025",
        "note_en": "Photogrammetry, drone mapping, LiDAR and cartographic production.",
        "note_fr": "Photogrammétrie, cartographie par drone, LiDAR et production cartographique.",
        "projects": [
          "drone-photogrammetry",
          "dsm-dtm",
          "3d-reconstruction",
          "lidar",
          "webgis-360",
          "cartography"
        ]
      },
      "geometry": {
        "type": "Point",
        "coordinates": [
          10.197,
          36.843
        ]
      }
    },
    {
      "type": "Feature",
      "properties": {
        "id": "tunis-but",
        "type": "work",
        "precision": "city",
        "name_en": "Tunis, Tunisia",
        "name_fr": "Tunis, Tunisie",
        "org": "Topography BUT, But Groupe · 2021",
        "note_en": "Topographic surveying, quarry volumes, land subdivision.",
        "note_fr": "Levés topographiques, cubatures de carrière, lotissement.",
        "projects": [
          "topo-quarry"
        ]
      },
      "geometry": {
        "type": "Point",
        "coordinates": [
          10.14,
          36.79
        ]
      }
    },
    {
      "type": "Feature",
      "properties": {
        "id": "tunis-esat",
        "type": "academic",
        "precision": "city",
        "name_en": "Tunis, Tunisia",
        "name_fr": "Tunis, Tunisie",
        "org": "ESAT University · 2020–2023",
        "note_en": "National Engineering Degree in Geomatics and Surveying; academic projects.",
        "note_fr": "Diplôme National d'Ingénieur en Géomatique et Topographie ; projets académiques.",
        "projects": [
          "flood-risk"
        ]
      },
      "geometry": {
        "type": "Point",
        "coordinates": [
          10.235,
          36.815
        ]
      }
    },
    {
      "type": "Feature",
      "properties": {
        "id": "nabeul",
        "type": "work",
        "precision": "city",
        "name_en": "Nabeul, Tunisia",
        "name_fr": "Nabeul, Tunisie",
        "org": "GeoTop · ISET Nabeul 2017–2020",
        "note_en": "GeoTop (final-year project host) and ISET Nabeul.",
        "note_fr": "GeoTop (organisme d'accueil du PFE) et ISET Nabeul.",
        "projects": []
      },
      "geometry": {
        "type": "Point",
        "coordinates": [
          10.7376,
          36.4561
        ]
      }
    },
    {
      "type": "Feature",
      "properties": {
        "id": "kerkennah",
        "type": "work",
        "precision": "region",
        "name_en": "Kerkennah Islands, Tunisia",
        "name_fr": "Îles Kerkennah, Tunisie",
        "org": "GeoTop · STEG low-voltage network · 2023",
        "note_en": "Low-voltage network database, QField field collection and WebGIS (final-year project).",
        "note_fr": "Base de données du réseau basse tension, collecte QField et WebSIG (projet de fin d'études).",
        "projects": [
          "utility-gis-db",
          "webgis-lizmap"
        ]
      },
      "geometry": {
        "type": "Point",
        "coordinates": [
          11.25,
          34.72
        ]
      }
    }
  ]
}